#dP2024  6  8  0  0  0.00000000      97 __u+U IGS20 FIT  IAC
## 2317 518400.00000000   900.00000000 60469 0.0000000000000
+  120   C06C07C08C09C10C11C12C13C14C16C19C20C21C22C23C24C25
+        C26C27C28C29C30C32C33C34C35C36C37C38C39C40C41C42C43
+        C44C45C46E02E03E04E05E07E08E09E10E11E12E13E14E15E18
+        E19E21E25E26E27E24E30E31E33E34E36G01G02G03G04G05G06
+        G07G08G09G10G11G12G13G14G15G16G17G18G19G20G21G22G23
+        G24G25G26G27G28G29G30G31G32J02J03J04R01R02R03R04R05
+        R07R08R09R11R12R13R14R15R16R17R18R19R20R21R22R24R25
+        R26  0  0  0  0  0  0  0  0  0  0  0  0  0  0  0  0
++         7  9  7  7  8  7  6  7  7  7  6  6  6  6  5  5  6
++         5  5  5  6  6  6  5  6  6  6  6  6 10  6  5  6  6
++         6  6  5  4  4  4  5  4  4  4  4  4  4  4  4  4  4
++         4  4  4  4  4  4  4  4  4  4  4  4  3  3  3  3  4
++         3  3  4  3  4  3  4  3  3  4  3  3  3  4  3  3  3
++         3  4  4  3  3  4  3  4  3 11 11 11  8  7  6  6  6
++         7  7  6  6  6  8  7  6  7  7  7  7  8  7  7  7  8
++         8  0  0  0  0  0  0  0  0  0  0  0  0  0  0  0  0
%c M  cc GPS ccc cccc cccc cccc cccc ccccc ccccc ccccc ccccc
%c cc cc ccc ccc cccc cccc cccc cccc ccccc ccccc ccccc ccccc
%f  1.2500000  1.025000000  0.00000000000  0.000000000000000
%f  0.0000000  0.000000000  0.00000000000  0.000000000000000
%i    0    0    0    0      0      0      0      0         0
%i    0    0    0    0      0      0      0      0         0
/* INFORMATION & ANALYSIS CENTER (IAC)            FINAL DATA
/* S/V CLOCKS ARE ALIGNED TO GNSS TIME                      
/* G:C1WC2W R:C1PC2P E:C1XC5X C:C2IC6I J:C1CC2S             
/* PCV:IGS20_2317 OL/AL:FES2004  NONE     YN ORB:CoN CLK:CoN
*  2024 06 08  2  0  0.00000000
PC06  -1657.985037  34480.868088 -23913.778797    486.236754
PC07 -12492.303050  27282.091007  29649.528771   -657.707821
PC08 -16841.759609  37853.481914  -8423.139707   -191.210833
PC09   4511.685170  38017.888618 -16454.764693    141.728437
PC10  -2892.947586  27970.502627  31694.542556    -19.069640
PC11 -19192.537310 -20076.980635  -2573.196971    602.551752
PC12  -4025.708641 -20372.350070 -18607.631201   -254.597733
PC13 -11559.720140  38262.058679 -13693.695420    437.755237
PC14 -14497.609010 -10305.004443  21495.083374    912.287617
PC16  -3192.784188  32852.613904 -25737.123064   -574.246310
PC19  22264.968177   3864.919553 -16375.214410   -913.685751
PC20   6443.162258  14221.211761 -23123.487657   -551.020764
PC21  14971.109272 -16926.469874  16410.357668   -972.585052
PC22  26329.932190  -9305.139349    170.840827     21.557007
PC23 -16696.850456   9270.381701 -20337.978672   -785.082596
PC24  -2432.590126 -25972.570702  -9891.756461    907.557462
PC25 -13800.427342 -11383.587934 -21420.410382    420.125313
PC26   9411.089544 -25225.792160   7260.000216   -302.628963
PC27  -4916.713859  16287.051640  22095.448204    323.974489
PC28 -18538.598831   3072.513219  20630.416646    248.838472
PC29  23512.529344  14063.380983  -5318.715433    292.053301
PC30  12510.436347  21486.290586  12642.170840    -97.303478
PC32 -14890.502557  17019.983366 -16322.121198   -641.860740
PC33 -22183.569747  -3850.969640  16469.668897   -961.558309
PC34 -13869.043327 -21439.756468 -11295.242674    450.960686
PC35  18671.710977  -3537.652525 -20441.518016    343.476182
PC36  13562.710855  11667.694563  21444.881871    104.263473
PC37 -10042.934365  24978.500674  -7375.866556   -946.364576
PC38 -19337.847320  37523.998900  -1412.676725    159.967356
PC39  -5185.857069  30076.917785 -28901.357783     -8.630584
PC40 -18067.379303  20801.112633  31829.793553    -74.050971
PC41 -26450.551590   8823.354576    775.116157   -968.644503
PC42  -4498.157946 -14999.266467  23139.837020   -445.320570
PC43 -23308.845857 -14723.289396   4368.094714     74.553900
PC44   4522.307440 -16510.420230 -22062.060298    497.031475
PC45  16645.689318  -8958.501531  20525.093908    -92.365133
PC46   2735.887638  25729.087977  10500.806205   -154.931016
PE02 -21659.312075   1995.334371 -20084.205853    133.741534
PE03 -28889.886691  -6042.924274  -2105.071115   -118.954399
PE04  21338.639629  -8042.884300  18888.556055   -416.024051
PE05 -19278.854019 -16242.505319  15514.026540   4754.999734
PE07  -2052.173536  16920.654525 -24192.000722   -124.550101
PE08 -21963.868370   7371.784941 -18408.983981   -283.429458
PE09   2171.211972 -16755.887528  24308.986689   -471.725591
PE10   6254.021793 -22248.944063 -18504.142266   -631.005729
PE11   -817.928019 -27863.109425  -9995.383709   2689.741248
PE12  11807.368443 -14003.722048 -23265.933711  -1072.599432
PE13    481.586019  27654.296120  10530.253501    -22.100921
PE14  24361.318416  -9550.675095 -18569.384354     64.600705
PE15 -12014.633209  13390.219600  23502.694912   -107.575136
PE18  -9888.194529  13182.126285  18203.829922    200.986922
PE19  28633.789558   7514.249949    191.051308     79.002183
PE21   8436.336965  15056.115577  24047.660631   -598.802931
PE25  -8051.985916 -15370.317056 -23975.806857      5.469336
PE26  12797.889562  25180.278628  -8852.496333    477.447971
PE27 -10229.340816  23966.358944  14046.102823   -369.591695
PE24  10485.218739 -23974.762097 -13836.270687   -806.671221
PE30 -22729.938246  18495.340686  -4210.768653   -382.241967
PE31  22633.950637 -18628.875502   4121.705836    -25.764205
PE33  17272.885925   9049.955691 -22273.611459     12.563396
PE34 -17281.068065  -8464.568471  22479.563842   -115.753371
PE36 -12464.347555 -25523.348959   8343.618234   -238.169330
PG01   1218.385004 -19750.143930 -17932.414839    262.536851
PG02 -16799.599195  -2963.273959  20908.466547   -421.798946
PG03 -20783.211284   9556.556441  13233.653321    402.978503
PG04 -25127.168828   -201.845083  -8796.538490    378.457757
PG05  15030.025271   4917.476409 -21532.342512   -175.546086
PG06   4606.608231  25717.412988   4498.520106    230.734370
PG07  -8532.412720  16491.114730 -18293.786640    -99.524049
PG08 -25964.623357  -6318.220188  -2068.008912    219.010241
PG09 -17242.558075   9468.282931 -17952.233526    226.311608
PG10   7025.734879 -21400.507365  14017.949312    -38.233984
PG11  12082.599373  21982.121067  -8795.232846   -680.654711
PG12  21209.012311  -6385.232100  14339.303463   -512.221218
PG13  21165.389232  14053.213388  -8357.320043    656.364054
PG14 -10599.624436  21887.571343  10456.345633    420.107989
PG15  26341.113340   3599.136455  -2544.929027    167.720821
PG16 -12570.308112  -9170.369829 -21889.919777   -270.348094
PG17  -3702.542327  14781.883264  22171.569411    697.614565
PG18   8032.238342 -17175.998198 -18500.668620   -621.996812
PG19   7071.623092  16524.154767  19509.755524    493.299769
PG20   8460.216823  14162.163547 -20785.148801    374.072633
PG21 -17768.619849  -9283.423921  18342.648588    116.829165
PG22  -4336.789892  20225.529834  17240.888288    -24.397752
PG23  15782.472432 -21048.840741   2775.071317    244.969356
PG24  17521.325224   5365.294527  18941.840891   -476.149627
PG25  20180.014488 -15509.480242   6775.603759    497.017758
PG26  -2290.052541 -19155.656986 -18251.902864    140.557974
PG27 -20059.861924 -13029.065015 -12276.965007    -27.396723
PG28  -3860.378142 -25375.642512   6820.750681   -279.027239
PG29  20160.634138  -5656.472112 -16461.981563   -595.200496
PG30   -911.884573  23988.150642 -10917.240131   -377.828514
PG31 -10255.249539 -23895.491791  -4467.487523   -227.515373
PG32     33.812952 -15514.874107  21786.817253   -616.847265
PJ02 -30047.914005  29485.546910   7189.445017     -0.292511
PJ03 -25020.658525  24903.246245  28166.813910      0.496944
PJ04 -33075.918001  22147.036228  -8706.833380     50.330766
PR01  14854.765698   6690.165439 -19631.645064     87.752648
PR02  24790.201401   -956.242510  -5748.357867    -23.199657
PR03  20959.320839  -8797.670116  11568.157927    101.657286
PR04   5982.775025 -11224.006205  22140.206589    240.099034
PR05 -12301.210932  -7966.078014  20896.224624    132.748031
PR07 -20589.933752   8962.304942 -12100.734150     84.102226
PR08  -5667.332849  11346.517613 -22074.763720     -4.713178
PR09 -12288.663519   1756.478372 -22249.399046    191.003160
PR11  -7412.184366  24206.750279   3051.576542     22.128315
PR12   3868.148691  16130.301751  19410.329753     41.054883
PR13  11309.226998   1030.318426  22831.603748    -48.143605
PR14  13091.483654 -18015.139950  12477.463461     26.557218
PR15   6764.800542 -24160.506169  -4609.361000     79.029799
PR16  -3652.993828 -16284.848558 -19291.494663     26.286362
PR17   8492.701412  -6386.523905 -23187.908482     93.878884
PR18  -4099.473683 -18124.596551 -17490.197511    145.947925
PR19 -13113.387380 -21391.965538  -4585.091167   -279.513586
PR20 -16776.985137 -11120.176701  15695.972779   -114.087551
PR21  -8610.051184   6093.120330  23217.650875   -107.422414
PR22   4211.294141  18919.227832  16598.949784    105.172219
PR24  17386.168729   9710.173751 -15941.499517    -58.974153
PR25  -8755.882296   6544.101484  23047.928477    -36.748623
PR26  -6927.968359  11416.300578 -21705.375283     -6.774706
EOF
